NORAD_CAT_ID,OBJECT_NAME,OBJECT_TYPE,EPOCH,MEAN_MOTION,ECCENTRICITY,INCLINATION,RA_OF_ASC_NODE,ARG_OF_PERICENTER,MEAN_ANOMALY,BSTAR,MEAN_MOTION_DOT,MEAN_MOTION_DDOT,TLE_LINE0,TLE_LINE1,TLE_LINE2,SEMIMAJOR_AXIS,PERIOD,APOGEE,PERIGEE,DECAYED
54054.0,STARLINK-5163,PAYLOAD,2024-01-31 10:43:55,15.08839199,0.0001444,53.2165,193.0243,79.6042,280.5113,7.5401e-05,9.12e-06,0.0,0 STARLINK-5163,1 54054U 22136D   24031.44716943  .00000912  00000-0  75401-4 0  9993,2 54054  53.2165 193.0243 0001444  79.6042 280.5113 15.08839199 70869,6917.883,95.438,540.747,538.749,0.0
54054.0,STARLINK-5163,PAYLOAD,2024-02-01 10:34:42,15.0883748,0.0001408,53.2163,188.5635,77.0248,283.0902,3.9665e-05,3.43e-06,0.0,0 STARLINK-5163,1 54054U 22136D   24032.44077295  .00000343  00000-0  39665-4 0  9994,2 54054  53.2163 188.5635 0001408  77.0248 283.0902 15.08837480 71496,6917.888,95.438,540.727,538.779,0.0
54054.0,STARLINK-5163,PAYLOAD,2024-02-01 20:07:01,15.08839013,0.0001468,53.2162,186.7789,80.8638,279.252,4.919e-05,4.95e-06,0.0,0 STARLINK-5163,1 54054U 22136D   24032.83821225  .00000495  00000-0  49190-4 0  9999,2 54054  53.2162 186.7789 0001468  80.8638 279.2520 15.08839013 71077,6917.883,95.438,540.764,538.733,0.0
54054.0,STARLINK-5163,PAYLOAD,2024-02-02 13:36:15,15.08838839,0.0001473,53.2155,183.5068,95.9131,264.2029,7.6757e-05,9.34e-06,0.0,0 STARLINK-5163,1 54054U 22136D   24033.56685155  .00000934  00000-0  76757-4 0  9997,2 54054  53.2155 183.5068 0001473  95.9131 264.2029 15.08838839 71180,6917.884,95.438,540.768,538.73,0.0
54054.0,STARLINK-5163,PAYLOAD,2024-02-02 16:47:02,15.08840138,0.0001499,53.2164,182.9122,91.124,268.9924,8.3482e-05,1.041e-05,0.0,0 STARLINK-5163,1 54054U 22136D   24033.69933108  .00001041  00000-0  83482-4 0  9998,2 54054  53.2164 182.9122 0001499  91.1240 268.9924 15.08840138 71686,6917.88,95.438,540.782,538.708,0.0
54054.0,STARLINK-5163,PAYLOAD,2024-02-03 13:27:03,15.08836598,0.0001626,53.2172,179.0468,102.3384,257.779,4.7344e-05,4.65e-06,0.0,0 STARLINK-5163,1 54054U 22136D   24034.56045603  .00000465  00000-0  47344-4 0  9995,2 54054  53.2172 179.0468 0001626 102.3384 257.7790 15.08836598 71335,6917.891,95.438,540.881,538.631,0.0
54054.0,STARLINK-5163,PAYLOAD,2024-02-03 15:02:26,15.0883715,0.0001618,53.2173,178.7495,101.6074,258.51,5.0427e-05,5.15e-06,0.0,0 STARLINK-5163,1 54054U 22136D   24034.62669573  .00000515  00000-0  50427-4 0  9992,2 54054  53.2173 178.7495 0001618 101.6074 258.5100 15.08837150 71824,6917.889,95.438,540.873,538.635,0.0
54054.0,STARLINK-5163,PAYLOAD,2024-02-04 14:53:13,15.08838667,0.0001602,53.2181,174.2902,98.2234,261.894,2.5146e-05,1.12e-06,0.0,0 STARLINK-5163,1 54054U 22136D   24035.62029746  .00000112  00000-0  25146-4 0  9998,2 54054  53.2181 174.2902 0001602  98.2234 261.8940 15.08838667 71495,6917.884,95.438,540.858,538.641,0.0
54054.0,STARLINK-5163,PAYLOAD,2024-02-05 08:22:28,15.0883962,0.0001572,53.2186,171.0192,96.4168,263.7003,5.7861e-05,6.33e-06,0.0,0 STARLINK-5163,1 54054U 22136D   24036.34893714  .00000633  00000-0  57861-4 0  9999,2 54054  53.2186 171.0192 0001572  96.4168 263.7003 15.08839620 72085,6917.882,95.438,540.834,538.659,0.0
54054.0,STARLINK-5163,PAYLOAD,2024-02-05 14:44:00,15.08842221,0.0001566,53.2181,169.8296,95.6525,264.4646,7.783e-05,9.51e-06,0.0,0 STARLINK-5163,1 54054U 22136D   24036.61389495  .00000951  00000-0  77830-4 0  9996,2 54054  53.2181 169.8296 0001566  95.6525 264.4646 15.08842221 71644,6917.874,95.437,540.822,538.655,0.0
54054.0,STARLINK-5163,PAYLOAD,2024-02-05 16:19:23,15.08844514,0.0001477,53.2177,169.5322,90.0582,270.0579,9.2962e-05,1.192e-05,0.0,0 STARLINK-5163,1 54054U 22136D   24036.68013317  .00001192  00000-0  92962-4 0  9991,2 54054  53.2177 169.5322 0001477  90.0582 270.0579 15.08844514 71655,6917.867,95.437,540.753,538.71,0.0
54054.0,STARLINK-5163,PAYLOAD,2024-02-06 14:34:47,15.08840477,0.0001609,53.2175,165.3695,74.4534,285.6636,7.2159e-05,8.61e-06,0.0,0 STARLINK-5163,1 54054U 22136D   24037.60749747  .00000861  00000-0  72159-4 0  9995,2 54054  53.2175 165.3695 0001609  74.4534 285.6636 15.08840477 71795,6917.879,95.438,540.857,538.631,0.0
54054.0,STARLINK-5163,PAYLOAD,2024-02-07 14:25:34,15.08843922,0.0001446,53.217,160.9075,87.6859,272.4298,1.0451e-05,-1.22e-06,0.0,0 STARLINK-5163,1 54054U 22136D   24038.60109656 -.00000122  00000-0  10451-4 0  9993,2 54054  53.2170 160.9075 0001446  87.6859 272.4298 15.08843922 71941,6917.868,95.437,540.734,538.733,0.0
54054.0,STARLINK-5163,PAYLOAD,2024-02-08 11:05:36,15.08833728,0.0001337,53.2161,157.0428,82.4206,277.6938,1.6938e-05,-1.8e-07,0.0,0 STARLINK-5163,1 54054U 22136D   24039.46222463 -.00000018  00000-0  16938-4 0  9990,2 54054  53.2161 157.0428 0001337  82.4206 277.6938 15.08833728 72557,6917.9,95.438,540.689,538.84,0.0
54054.0,STARLINK-5163,PAYLOAD,2024-02-08 14:16:22,15.0884079,0.0001455,53.2167,156.4483,92.8225,267.2933,-2.5088e-05,-6.87e-06,0.0,0 STARLINK-5163,1 54054U 22136D   24039.59470184 -.00000687  00000-0 -25088-4 0  9998,2 54054  53.2167 156.4483 0001455  92.8225 267.2933 15.08840790 72090,6917.878,95.438,540.75,538.736,0.0
54054.0,STARLINK-5163,PAYLOAD,2024-02-09 14:07:09,15.08838536,0.0001473,53.2172,151.9855,92.874,267.2421,1.951e-05,2.3e-07,0.0,0 STARLINK-5163,1 54054U 22136D   24040.58830510  .00000023  00000-0  19510-4 0  9997,2 54054  53.2172 151.9855 0001473  92.8740 267.2421 15.08838536 72245,6917.885,95.438,540.769,538.731,0.0
54054.0,STARLINK-5163,PAYLOAD,2024-02-09 17:17:55,15.08837301,0.0001546,53.2172,151.3889,104.4956,255.6208,7.087e-05,8.4e-06,0.0,0 STARLINK-5163,1 54054U 22136D   24040.72078425  .00000840  00000-0  70870-4 0  9995,2 54054  53.2172 151.3889 0001546 104.4956 255.6208 15.08837301 72744,6917.889,95.438,540.823,538.684,0.0
54054.0,STARLINK-5163,PAYLOAD,2024-02-10 12:22:32,15.08847428,0.0001391,53.2164,147.8207,91.7535,268.3617,0.00013792,1.908e-05,0.0,0 STARLINK-5163,1 54054U 22136D   24041.51565784  .00001908  00000-0  13792-3 0  9997,2 54054  53.2164 147.8207 0001391  91.7535 268.3617 15.08847428 72867,6917.858,95.437,540.685,538.76,0.0
54054.0,STARLINK-5163,PAYLOAD,2024-02-10 13:57:55,15.088494,0.0001379,53.2173,147.5231,90.9438,269.1712,0.00017253,2.46e-05,0.0,0 STARLINK-5163,1 54054U 22136D   24041.58189611  .00002460  00000-0  17253-3 0  9995,2 54054  53.2173 147.5231 0001379  90.9438 269.1712 15.08849400 72395,6917.852,95.437,540.671,538.763,0.0
54054.0,STARLINK-5163,PAYLOAD,2024-02-11 12:13:19,15.08846998,0.000154,53.2175,143.362,106.1745,253.9417,8.9542e-05,1.138e-05,0.0,0 STARLINK-5163,1 54054U 22136D   24042.50925917  .00001138  00000-0  89542-4 0  9997,2 54054  53.2175 143.3620 0001540 106.1745 253.9417 15.08846998 73016,6917.859,95.437,540.789,538.659,0.0
54054.0,STARLINK-5163,PAYLOAD,2024-02-12 13:39:29,15.08853029,0.0001307,53.2166,138.6056,81.5408,278.5732,8.4557e-05,1.059e-05,0.0,0 STARLINK-5163,1 54054U 22136D   24043.56909378  .00001059  00000-0  84557-4 0  9990,2 54054  53.2166 138.6056 0001307  81.5408 278.5732 15.08853029 72698,6917.841,95.437,540.61,538.801,0.0
54054.0,STARLINK-5163,PAYLOAD,2024-02-12 15:14:52,15.0885536,0.0001417,53.2174,138.3088,97.0308,263.0846,0.00010434,1.374e-05,0.0,0 STARLINK-5163,1 54054U 22136D   24043.63533091  .00001374  00000-0  10434-3 0  9995,2 54054  53.2174 138.3088 0001417  97.0308 263.0846 15.08855360 73182,6917.833,95.437,540.679,538.718,0.0
54054.0,STARLINK-5163,PAYLOAD,2024-02-13 11:54:55,15.08831852,0.0001969,53.2176,134.4413,125.6944,234.4232,-7.6384e-05,-1.503e-05,0.0,0 STARLINK-5163,1 54054U 22136D   24044.49647234 -.00001503  00000-0 -76384-4 0  9998,2 54054  53.2176 134.4413 0001969 125.6944 234.4232 15.08831852 73315,6917.905,95.438,541.132,538.408,0.0
54054.0,STARLINK-5163,PAYLOAD,2024-02-13 13:30:18,15.08832166,0.000158,53.2174,134.1457,83.7071,276.4101,-3.8725e-05,-9.04e-06,0.0,0 STARLINK-5163,1 54054U 22136D   24044.56271514 -.00000904  00000-0 -38725-4 0  9991,2 54054  53.2174 134.1457 0001580  83.7071 276.4101 15.08832166 72849,6917.904,95.438,540.862,538.676,0.0
54054.0,STARLINK-5163,PAYLOAD,2024-02-13 23:02:36,15.08839288,0.0001593,53.2176,132.361,84.3033,275.8141,5.7382e-05,6.25e-06,0.0,0 STARLINK-5163,1 54054U 22136D   24044.96014996  .00000625  00000-0  57382-4 0  9992,2 54054  53.2176 132.3610 0001593  84.3033 275.8141 15.08839288 73380,6917.883,95.438,540.85,538.646,0.0
54054.0,STARLINK-5163,PAYLOAD,2024-02-14 13:21:03,15.08868279,0.0001395,53.2156,129.6855,91.0064,269.1088,0.00046449,7.118e-05,0.0,0 STARLINK-5163,1 54054U 22136D   24045.55629268  .00007118  00000-0  46449-3 0  9997,2 54054  53.2156 129.6855 0001395  91.0064 269.1088 15.08868279 72991,6917.794,95.436,540.624,538.694,0.0
54054.0,STARLINK-5163,PAYLOAD,2024-02-14 14:56:26,15.08870407,0.0001397,53.2156,129.3874,91.1331,268.9821,0.00049457,7.598e-05,0.0,0 STARLINK-5163,1 54054U 22136D   24045.62253107  .00007598  00000-0  49457-3 0  9994,2 54054  53.2156 129.3874 0001397  91.1331 268.9821 15.08870407 73482,6917.787,95.436,540.619,538.686,0.0
54054.0,STARLINK-5163,PAYLOAD,2024-02-14 22:53:23,15.08839257,0.0001972,53.2163,127.9012,76.6515,283.4697,6.4779e-05,7.43e-06,0.0,0 STARLINK-5163,1 54054U 22136D   24045.95374885  .00000743  00000-0  64779-4 0  9997,2 54054  53.2163 127.9012 0001972  76.6515 283.4697 15.08839257 73536,6917.883,95.438,541.112,538.383,0.0
54054.0,STARLINK-5163,PAYLOAD,2024-02-15 11:36:29,15.08835981,0.0001854,53.2164,125.5201,84.2559,275.8644,0.00010676,1.411e-05,0.0,0 STARLINK-5163,1 54054U 22136D   24046.48367408  .00001411  00000-0  10676-3 0  9998,2 54054  53.2164 125.5201 0001854  84.2559 275.8644 15.08835981 73136,6917.893,95.438,541.04,538.475,0.0
54054.0,STARLINK-5163,PAYLOAD,2024-02-15 14:47:15,15.08837947,0.000191,53.2163,124.9247,86.028,274.093,0.00012544,1.709e-05,0.0,0 STARLINK-5163,1 54054U 22136D   24046.61615371  .00001709  00000-0  12544-3 0  9994,2 54054  53.2163 124.9247 0001910  86.0280 274.0930 15.08837947 73157,6917.887,95.438,541.073,538.43,0.0
